[{"OBJECT_NAME":"QIANFAN-103","OBJECT_ID":"2025-233N","EPOCH":"2026-03-05T17:12:22.505760","MEAN_MOTION":13.51006125,"ECCENTRICITY":0.0001914,"INCLINATION":88.9936,"RA_OF_ASC_NODE":53.651,"ARG_OF_PERICENTER":91.4783,"MEAN_ANOMALY":268.6587,"EPHEMERIS_TYPE":0,"CLASSIFICATION_TYPE":"U","NORAD_CAT_ID":66045,"ELEMENT_SET_NO":999,"REV_AT_EPOCH":1921,"BSTAR":1.3455e-5,"MEAN_MOTION_DOT":2.1e-7,"MEAN_MOTION_DDOT":0},{"OBJECT_NAME":"QIANFAN-104","OBJECT_ID":"2025-233P","EPOCH":"2026-03-05T17:17:59.390592","MEAN_MOTION":13.51010223,"ECCENTRICITY":0.0002084,"INCLINATION":88.9941,"RA_OF_ASC_NODE":53.5481,"ARG_OF_PERICENTER":85.7981,"MEAN_ANOMALY":274.3408,"EPHEMERIS_TYPE":0,"CLASSIFICATION_TYPE":"U","NORAD_CAT_ID":66046,"ELEMENT_SET_NO":999,"REV_AT_EPOCH":1926,"BSTAR":2.3965e-5,"MEAN_MOTION_DOT":2.7e-7,"MEAN_MOTION_DDOT":0},{"OBJECT_NAME":"QIANFAN-105","OBJECT_ID":"2025-233Q","EPOCH":"2026-03-05T17:29:45.302784","MEAN_MOTION":13.50981462,"ECCENTRICITY":0.0002049,"INCLINATION":88.9954,"RA_OF_ASC_NODE":53.3765,"ARG_OF_PERICENTER":92.2694,"MEAN_ANOMALY":267.8692,"EPHEMERIS_TYPE":0,"CLASSIFICATION_TYPE":"U","NORAD_CAT_ID":66047,"ELEMENT_SET_NO":999,"REV_AT_EPOCH":1937,"BSTAR":2.3696e-5,"MEAN_MOTION_DOT":2.7e-7,"MEAN_MOTION_DDOT":0},{"OBJECT_NAME":"QIANFAN-106","OBJECT_ID":"2025-233R","EPOCH":"2026-03-05T15:37:30.382176","MEAN_MOTION":13.51005172,"ECCENTRICITY":0.0002388,"INCLINATION":88.9923,"RA_OF_ASC_NODE":53.6299,"ARG_OF_PERICENTER":85.8228,"MEAN_ANOMALY":274.3195,"EPHEMERIS_TYPE":0,"CLASSIFICATION_TYPE":"U","NORAD_CAT_ID":66048,"ELEMENT_SET_NO":999,"REV_AT_EPOCH":1921,"BSTAR":2.1745e-5,"MEAN_MOTION_DOT":2.6e-7,"MEAN_MOTION_DDOT":0},{"OBJECT_NAME":"QIANFAN-107","OBJECT_ID":"2025-233S","EPOCH":"2026-03-05T17:36:03.035808","MEAN_MOTION":13.51003231,"ECCENTRICITY":0.0001934,"INCLINATION":88.9939,"RA_OF_ASC_NODE":53.6375,"ARG_OF_PERICENTER":90.7445,"MEAN_ANOMALY":269.3928,"EPHEMERIS_TYPE":0,"CLASSIFICATION_TYPE":"U","NORAD_CAT_ID":66049,"ELEMENT_SET_NO":999,"REV_AT_EPOCH":1922,"BSTAR":3.748e-5,"MEAN_MOTION_DOT":3.6e-7,"MEAN_MOTION_DDOT":0},{"OBJECT_NAME":"QIANFAN-108","OBJECT_ID":"2025-233T","EPOCH":"2026-03-05T17:41:57.648192","MEAN_MOTION":13.51004706,"ECCENTRICITY":0.0002339,"INCLINATION":88.9932,"RA_OF_ASC_NODE":53.6321,"ARG_OF_PERICENTER":85.4858,"MEAN_ANOMALY":274.656,"EPHEMERIS_TYPE":0,"CLASSIFICATION_TYPE":"U","NORAD_CAT_ID":66050,"ELEMENT_SET_NO":999,"REV_AT_EPOCH":1922,"BSTAR":2.4015e-5,"MEAN_MOTION_DOT":2.8e-7,"MEAN_MOTION_DDOT":0}]
