QIANFAN-103             
1 66045U 25233N   26064.71692715  .00000021  00000+0  13455-4 0  9996
2 66045  88.9936  53.6510 0001914  91.4783 268.6587 13.51006125 19212
QIANFAN-104             
1 66046U 25233P   26064.72082628  .00000027  00000+0  23965-4 0  9997
2 66046  88.9941  53.5481 0002084  85.7981 274.3408 13.51010223 19265
QIANFAN-105             
1 66047U 25233Q   26064.72899656  .00000027  00000+0  23696-4 0  9996
2 66047  88.9954  53.3765 0002049  92.2694 267.8692 13.50981462 19373
QIANFAN-106             
1 66048U 25233R   26064.65104609  .00000026  00000+0  21745-4 0  9998
2 66048  88.9923  53.6299 0002388  85.8228 274.3195 13.51005172 19212
QIANFAN-107             
1 66049U 25233S   26064.73336847  .00000036  00000+0  37480-4 0  9993
2 66049  88.9939  53.6375 0001934  90.7445 269.3928 13.51003231 19220
QIANFAN-108             
1 66050U 25233T   26064.73747278  .00000028  00000+0  24015-4 0  9990
2 66050  88.9932  53.6321 0002339  85.4858 274.6560 13.51004706 19224
